CCSDS_OMM_VERS = 2.0
CREATION_DATE  = 
ORIGINATOR     = 

OBJECT_NAME    = ATLAS CENTAUR 2
OBJECT_ID      = 1963-047A
CENTER_NAME    = EARTH
REF_FRAME      = TEME
TIME_SYSTEM    = UTC
MEAN_ELEMENT_THEORY = SGP/SGP4

EPOCH          = 2026-04-03T13:41:40.359264
MEAN_MOTION    = 14.12181743
ECCENTRICITY   = .05471689
INCLINATION    = 30.3579
RA_OF_ASC_NODE = 56.5832
ARG_OF_PERICENTER = 299.5752
MEAN_ANOMALY   = 55.1393

EPHEMERIS_TYPE = 0
CLASSIFICATION_TYPE = U
NORAD_CAT_ID   = 694
ELEMENT_SET_NO = 999
REV_AT_EPOCH   = 13514
BSTAR          = .51638935E-3
MEAN_MOTION_DOT = .4323E-4
MEAN_MOTION_DDOT = 0

CCSDS_OMM_VERS = 2.0
CREATION_DATE  = 
ORIGINATOR     = 

OBJECT_NAME    = THOR AGENA D R/B
OBJECT_ID      = 1964-002A
CENTER_NAME    = EARTH
REF_FRAME      = TEME
TIME_SYSTEM    = UTC
MEAN_ELEMENT_THEORY = SGP/SGP4

EPOCH          = 2026-04-03T13:41:52.508832
MEAN_MOTION    = 14.34034188
ECCENTRICITY   = .0032859
INCLINATION    = 99.1209
RA_OF_ASC_NODE = 108.2637
ARG_OF_PERICENTER = 184.3171
MEAN_ANOMALY   = 175.7733

EPHEMERIS_TYPE = 0
CLASSIFICATION_TYPE = U
NORAD_CAT_ID   = 733
ELEMENT_SET_NO = 999
REV_AT_EPOCH   = 24186
BSTAR          = .13639766E-3
MEAN_MOTION_DOT = .335E-5
MEAN_MOTION_DDOT = 0

CCSDS_OMM_VERS = 2.0
CREATION_DATE  = 
ORIGINATOR     = 

OBJECT_NAME    = SL-3 R/B
OBJECT_ID      = 1964-053B
CENTER_NAME    = EARTH
REF_FRAME      = TEME
TIME_SYSTEM    = UTC
MEAN_ELEMENT_THEORY = SGP/SGP4

EPOCH          = 2026-04-03T14:26:33.874944
MEAN_MOTION    = 14.61387142
ECCENTRICITY   = .00805889
INCLINATION    = 65.0756
RA_OF_ASC_NODE = 258.1964
ARG_OF_PERICENTER = 284.3848
MEAN_ANOMALY   = 74.8317

EPHEMERIS_TYPE = 0
CLASSIFICATION_TYPE = U
NORAD_CAT_ID   = 877
ELEMENT_SET_NO = 999
REV_AT_EPOCH   = 27043
BSTAR          = .11539732E-3
MEAN_MOTION_DOT = .473E-5
MEAN_MOTION_DDOT = 0

CCSDS_OMM_VERS = 2.0
CREATION_DATE  = 
ORIGINATOR     = 

OBJECT_NAME    = SL-8 R/B
OBJECT_ID      = 1967-045B
CENTER_NAME    = EARTH
REF_FRAME      = TEME
TIME_SYSTEM    = UTC
MEAN_ELEMENT_THEORY = SGP/SGP4

EPOCH          = 2026-04-03T13:21:47.662560
MEAN_MOTION    = 14.45642914
ECCENTRICITY   = .0065007
INCLINATION    = 74.0103
RA_OF_ASC_NODE = 301.6486
ARG_OF_PERICENTER = 302.4581
MEAN_ANOMALY   = 57.0301

EPHEMERIS_TYPE = 0
CLASSIFICATION_TYPE = U
NORAD_CAT_ID   = 2802
ELEMENT_SET_NO = 999
REV_AT_EPOCH   = 9261
BSTAR          = .14026598E-3
MEAN_MOTION_DOT = .48E-5
MEAN_MOTION_DDOT = 0

CCSDS_OMM_VERS = 2.0
CREATION_DATE  = 
ORIGINATOR     = 

OBJECT_NAME    = SL-8 R/B
OBJECT_ID      = 1968-040B
CENTER_NAME    = EARTH
REF_FRAME      = TEME
TIME_SYSTEM    = UTC
MEAN_ELEMENT_THEORY = SGP/SGP4

EPOCH          = 2026-04-03T14:21:29.747808
MEAN_MOTION    = 15.03439689
ECCENTRICITY   = .00233438
INCLINATION    = 74.0290
RA_OF_ASC_NODE = 262.7864
ARG_OF_PERICENTER = 76.4038
MEAN_ANOMALY   = 283.9748

EPHEMERIS_TYPE = 0
CLASSIFICATION_TYPE = U
NORAD_CAT_ID   = 3230
ELEMENT_SET_NO = 999
REV_AT_EPOCH   = 9375
BSTAR          = .47485241E-3
MEAN_MOTION_DOT = .6467E-4
MEAN_MOTION_DDOT = 0

CCSDS_OMM_VERS = 2.0
CREATION_DATE  = 
ORIGINATOR     = 

OBJECT_NAME    = OAO 2
OBJECT_ID      = 1968-110A
CENTER_NAME    = EARTH
REF_FRAME      = TEME
TIME_SYSTEM    = UTC
MEAN_ELEMENT_THEORY = SGP/SGP4

EPOCH          = 2026-04-03T04:54:34.479936
MEAN_MOTION    = 14.47322613
ECCENTRICITY   = .00052706
INCLINATION    = 34.9922
RA_OF_ASC_NODE = 128.3459
ARG_OF_PERICENTER = 29.0054
MEAN_ANOMALY   = 331.0929

EPHEMERIS_TYPE = 0
CLASSIFICATION_TYPE = U
NORAD_CAT_ID   = 3597
ELEMENT_SET_NO = 999
REV_AT_EPOCH   = 2265
BSTAR          = .11394889E-3
MEAN_MOTION_DOT = .404E-5
MEAN_MOTION_DDOT = 0

CCSDS_OMM_VERS = 2.0
CREATION_DATE  = 
ORIGINATOR     = 

OBJECT_NAME    = ISIS 1
OBJECT_ID      = 1969-009A
CENTER_NAME    = EARTH
REF_FRAME      = TEME
TIME_SYSTEM    = UTC
MEAN_ELEMENT_THEORY = SGP/SGP4

EPOCH          = 2026-04-03T14:07:06.927168
MEAN_MOTION    = 11.30420955
ECCENTRICITY   = .17077926
INCLINATION    = 88.4494
RA_OF_ASC_NODE = 152.5901
ARG_OF_PERICENTER = 38.9350
MEAN_ANOMALY   = 332.2991

EPHEMERIS_TYPE = 0
CLASSIFICATION_TYPE = U
NORAD_CAT_ID   = 3669
ELEMENT_SET_NO = 999
REV_AT_EPOCH   = 35134
BSTAR          = .1462161E-3
MEAN_MOTION_DOT = .222E-5
MEAN_MOTION_DDOT = 0

CCSDS_OMM_VERS = 2.0
CREATION_DATE  = 
ORIGINATOR     = 

OBJECT_NAME    = SERT 2
OBJECT_ID      = 1970-009A
CENTER_NAME    = EARTH
REF_FRAME      = TEME
TIME_SYSTEM    = UTC
MEAN_ELEMENT_THEORY = SGP/SGP4

EPOCH          = 2026-04-03T14:39:08.991936
MEAN_MOTION    = 13.58732433
ECCENTRICITY   = .00057503
INCLINATION    = 99.2793
RA_OF_ASC_NODE = 35.3449
ARG_OF_PERICENTER = 98.9396
MEAN_ANOMALY   = 73.9470

EPHEMERIS_TYPE = 0
CLASSIFICATION_TYPE = U
NORAD_CAT_ID   = 4327
ELEMENT_SET_NO = 999
REV_AT_EPOCH   = 78327
BSTAR          = .11465799E-3
MEAN_MOTION_DOT = .43E-6
MEAN_MOTION_DDOT = 0

CCSDS_OMM_VERS = 2.0
CREATION_DATE  = 
ORIGINATOR     = 

OBJECT_NAME    = SL-3 R/B
OBJECT_ID      = 1971-028B
CENTER_NAME    = EARTH
REF_FRAME      = TEME
TIME_SYSTEM    = UTC
MEAN_ELEMENT_THEORY = SGP/SGP4

EPOCH          = 2026-04-03T13:44:21.941952
MEAN_MOTION    = 15.63473115
ECCENTRICITY   = .00151956
INCLINATION    = 81.2384
RA_OF_ASC_NODE = 21.2493
ARG_OF_PERICENTER = 184.3378
MEAN_ANOMALY   = 175.7747

EPHEMERIS_TYPE = 0
CLASSIFICATION_TYPE = U
NORAD_CAT_ID   = 5118
ELEMENT_SET_NO = 999
REV_AT_EPOCH   = 99255
BSTAR          = .68389337E-3
MEAN_MOTION_DOT = .63907E-3
MEAN_MOTION_DDOT = 0

CCSDS_OMM_VERS = 2.0
CREATION_DATE  = 
ORIGINATOR     = 

OBJECT_NAME    = ASTEX 1
OBJECT_ID      = 1971-089A
CENTER_NAME    = EARTH
REF_FRAME      = TEME
TIME_SYSTEM    = UTC
MEAN_ELEMENT_THEORY = SGP/SGP4

EPOCH          = 2026-04-03T14:00:18.935136
MEAN_MOTION    = 14.50797016
ECCENTRICITY   = .001567
INCLINATION    = 92.7083
RA_OF_ASC_NODE = 159.8044
ARG_OF_PERICENTER = 9.3988
MEAN_ANOMALY   = 350.7509

EPHEMERIS_TYPE = 0
CLASSIFICATION_TYPE = U
NORAD_CAT_ID   = 5560
ELEMENT_SET_NO = 999
REV_AT_EPOCH   = 86591
BSTAR          = .20445966E-3
MEAN_MOTION_DOT = .805E-5
MEAN_MOTION_DDOT = 0

CCSDS_OMM_VERS = 2.0
CREATION_DATE  = 
ORIGINATOR     = 

OBJECT_NAME    = SL-8 R/B
OBJECT_ID      = 1971-119B
CENTER_NAME    = EARTH
REF_FRAME      = TEME
TIME_SYSTEM    = UTC
MEAN_ELEMENT_THEORY = SGP/SGP4

EPOCH          = 2026-04-03T11:48:34.302816
MEAN_MOTION    = 14.38331306
ECCENTRICITY   = .05460475
INCLINATION    = 73.8841
RA_OF_ASC_NODE = 129.3429
ARG_OF_PERICENTER = 90.7186
MEAN_ANOMALY   = 275.6538

EPHEMERIS_TYPE = 0
CLASSIFICATION_TYPE = U
NORAD_CAT_ID   = 5730
ELEMENT_SET_NO = 999
REV_AT_EPOCH   = 65905
BSTAR          = .61310383E-3
MEAN_MOTION_DOT = .11745E-3
MEAN_MOTION_DDOT = 0

CCSDS_OMM_VERS = 2.0
CREATION_DATE  = 
ORIGINATOR     = 

OBJECT_NAME    = OAO 3 (COPERNICUS)
OBJECT_ID      = 1972-065A
CENTER_NAME    = EARTH
REF_FRAME      = TEME
TIME_SYSTEM    = UTC
MEAN_ELEMENT_THEORY = SGP/SGP4

EPOCH          = 2026-04-03T11:36:16.936704
MEAN_MOTION    = 14.60019052
ECCENTRICITY   = .00066686
INCLINATION    = 35.0046
RA_OF_ASC_NODE = 156.0505
ARG_OF_PERICENTER = 358.3210
MEAN_ANOMALY   = 18.8399

EPHEMERIS_TYPE = 0
CLASSIFICATION_TYPE = U
NORAD_CAT_ID   = 6153
ELEMENT_SET_NO = 999
REV_AT_EPOCH   = 84982
BSTAR          = .11585483E-3
MEAN_MOTION_DOT = .544E-5
MEAN_MOTION_DDOT = 0

