{"fetched_at":"2026-04-04T05:23:49Z","count":4983,"tles":[{"name":"SL-3 R/B","line1":"1 00877U 64053B   26093.60178096  .00000473  00000+0  11540-3 0  9994","line2":"2 00877  65.0756 258.1964 0080588 284.3848  74.8317 14.61387142270437","category":"Other"},{"name":"ATLAS CENTAUR 2","line1":"1 00694U 63047A   26093.57060601  .00004323  00000+0  51639-3 0  9992","line2":"2 00694  30.3579  56.5832 0547168 299.5752  55.1393 14.12181743135149","category":"Other"},{"name":"ASTEX 1","line1":"1 05560U 71089A   26093.58355249  .00000805  00000+0  20446-3 0  9993","line2":"2 05560  92.7083 159.8044 0015670   9.3988 350.7509 14.50797016865912","category":"Other"},{"name":"ISIS 1","line1":"1 03669U 69009A   26093.58827462  .00000222  00000+0  14622-3 0  9993","line2":"2 03669  88.4494 152.5901 1707792  38.9350 332.2991 11.30420955351342","category":"Other"},{"name":"SL-8 R/B","line1":"1 05730U 71119B   26093.49206369  .00011745  00000+0  61310-3 0  9994","line2":"2 05730  73.8841 129.3429 0546047  90.7186 275.6538 14.38331306659058","category":"Other"},{"name":"SL-8 R/B","line1":"1 02802U 67045B   26093.55680165  .00000480  00000+0  14027-3 0  9998","line2":"2 02802  74.0103 301.6486 0065007 302.4581  57.0301 14.45642914 92612","category":"Other"},{"name":"SL-3 R/B","line1":"1 05118U 71028B   26093.57247618  .00063907  00000+0  68389-3 0  9994","line2":"2 05118  81.2384  21.2493 0015195 184.3378 175.7747 15.63473115992553","category":"Other"},{"name":"SL-8 R/B","line1":"1 03230U 68040B   26093.59826097  .00006467  00000+0  47485-3 0  9995","line2":"2 03230  74.0290 262.7864 0023343  76.4038 283.9748 15.03439689 93753","category":"Other"},{"name":"SERT 2","line1":"1 04327U 70009A   26093.61052074  .00000043  00000+0  11466-3 0  9994","line2":"2 04327  99.2793  35.3449 0005750  98.9396  73.9470 13.58732433783272","category":"Other"},{"name":"OAO 3 (COPERNICUS)","line1":"1 06153U 72065A   26093.48352936  .00000544  00000+0  11585-3 0  9990","line2":"2 06153  35.0046 156.0505 0006668 358.3210  18.8399 14.60019052849822","category":"Other"},{"name":"OAO 2","line1":"1 03597U 68110A   26093.20456574  .00000404  00000+0  11395-3 0  9992","line2":"2 03597  34.9922 128.3459 0005270  29.0054 331.0929 14.47322613 22656","category":"Other"},{"name":"THOR AGENA D R/B","line1":"1 00733U 64002A   26093.57074663  .00000335  00000+0  13640-3 0  9990","line2":"2 00733  99.1209 108.2637 0032859 184.3171 175.7733 14.34034188241864","category":"Other"}]}